start=new Date('2021-08-27T00:00:00.000Z').valueOf();
sats=[{"ECCENTRICITY":"0.00016660","ARG_OF_PERICENTER":"126.4496","MEAN_ANOMALY":"233.6647","GP_ID":"183496918","SITE":"AFETR","FILE":"3103480","ELEMENT_SET_NO":"999","MEAN_MOTION_DDOT":"0.0000000000000","NORAD_CAT_ID":"48123","MEAN_MOTION_DOT":"-0.00000120","EPOCH":"2021-08-26T16:45:57.514176","OBJECT_TYPE":"PAYLOAD","DECAY_DATE":null,"TLE_LINE1":"1 48123U 21027AH  21238.69858234 -.00000120  00000-0  10866-4 0  9990","MEAN_ELEMENT_THEORY":"SGP4","LAUNCH_DATE":"2021-04-07","SEMIMAJOR_AXIS":"6925.351","CLASSIFICATION_TYPE":"U","TLE_LINE2":"2 48123  53.0562  25.6377 0001666 126.4496 233.6647 15.06399159 23107","REF_FRAME":"TEME","RCS_SIZE":"LARGE","APOAPSIS":"548.370","EPHEMERIS_TYPE":"0","PERIOD":"95.592","INCLINATION":"53.0562","OBJECT_NAME":"STARLINK-2464","COUNTRY_CODE":"US","TIME_SYSTEM":"UTC","OBJECT_ID":"2021-027AH","REV_AT_EPOCH":"2310","BSTAR":"0.00001086600000","RA_OF_ASC_NODE":"25.6377","MEAN_MOTION":"15.06399159","PERIAPSIS":"546.062","CENTER_NAME":"EARTH"},{"MEAN_MOTION":"15.06402348","CENTER_NAME":"EARTH","PERIAPSIS":"546.132","RA_OF_ASC_NODE":"35.6464","TIME_SYSTEM":"UTC","OBJECT_ID":"2021-027AJ","BSTAR":"0.00006816500000","REV_AT_EPOCH":"2295","INCLINATION":"53.0571","OBJECT_NAME":"STARLINK-2465","COUNTRY_CODE":"US","CLASSIFICATION_TYPE":"U","TLE_LINE2":"2 48124  53.0571  35.6464 0001551 117.9230 242.1916 15.06402348 22951","RCS_SIZE":"LARGE","REF_FRAME":"TEME","EPHEMERIS_TYPE":"0","APOAPSIS":"548.280","PERIOD":"95.592","MEAN_ELEMENT_THEORY":"SGP4","TLE_LINE1":"1 48124U 21027AJ  21238.69765761  .00000734  00000-0  68165-4 0  9998","SEMIMAJOR_AXIS":"6925.341","LAUNCH_DATE":"2021-04-07","MEAN_MOTION_DOT":"0.00000734","EPOCH":"2021-08-26T16:44:37.617504","OBJECT_TYPE":"PAYLOAD","DECAY_DATE":null,"ARG_OF_PERICENTER":"117.9230","ECCENTRICITY":"0.00015510","FILE":"3103480","MEAN_ANOMALY":"242.1916","GP_ID":"183498169","SITE":"AFETR","MEAN_MOTION_DDOT":"0.0000000000000","ELEMENT_SET_NO":"999","NORAD_CAT_ID":"48124"},{"MEAN_ELEMENT_THEORY":"SGP4","TLE_LINE1":"1 48125U 21027AK  21238.75476901  .00000731  00000-0  67961-4 0  9991","LAUNCH_DATE":"2021-04-07","SEMIMAJOR_AXIS":"6925.333","TLE_LINE2":"2 48125  53.0568  45.3852 0002121 111.9748 248.1466 15.06405142 22837","CLASSIFICATION_TYPE":"U","REF_FRAME":"TEME","RCS_SIZE":"LARGE","APOAPSIS":"548.667","EPHEMERIS_TYPE":"0","PERIOD":"95.592","ECCENTRICITY":"0.00021210","ARG_OF_PERICENTER":"111.9748","SITE":"AFETR","GP_ID":"183497920","MEAN_ANOMALY":"248.1466","FILE":"3103480","ELEMENT_SET_NO":"999","MEAN_MOTION_DDOT":"0.0000000000000","NORAD_CAT_ID":"48125","MEAN_MOTION_DOT":"0.00000731","EPOCH":"2021-08-26T18:06:52.042464","OBJECT_TYPE":"PAYLOAD","DECAY_DATE":null,"RA_OF_ASC_NODE":"45.3852","MEAN_MOTION":"15.06405142","PERIAPSIS":"545.729","CENTER_NAME":"EARTH","INCLINATION":"53.0568","OBJECT_NAME":"STARLINK-2466","COUNTRY_CODE":"US","TIME_SYSTEM":"UTC","OBJECT_ID":"2021-027AK","REV_AT_EPOCH":"2283","BSTAR":"0.00006796100000"},{"GP_ID":"183497168","SITE":"AFETR","MEAN_ANOMALY":"233.9728","FILE":"3103480","ECCENTRICITY":"0.00014230","ARG_OF_PERICENTER":"126.1392","NORAD_CAT_ID":"48126","MEAN_MOTION_DDOT":"0.0000000000000","ELEMENT_SET_NO":"999","EPOCH":"2021-08-26T17:33:43.852320","MEAN_MOTION_DOT":"-0.00001072","DECAY_DATE":null,"OBJECT_TYPE":"PAYLOAD","TLE_LINE1":"1 48126U 21027AL  21238.73175755 -.00001072  00000-0 -53091-4 0  9993","MEAN_ELEMENT_THEORY":"SGP4","LAUNCH_DATE":"2021-04-07","SEMIMAJOR_AXIS":"6925.363","REF_FRAME":"TEME","RCS_SIZE":"LARGE","CLASSIFICATION_TYPE":"U","TLE_LINE2":"2 48126  53.0472  25.5413 0001423 126.1392 233.9728 15.06395174 23110","PERIOD":"95.592","APOAPSIS":"548.214","EPHEMERIS_TYPE":"0","OBJECT_NAME":"STARLINK-2467","INCLINATION":"53.0472","COUNTRY_CODE":"US","OBJECT_ID":"2021-027AL","TIME_SYSTEM":"UTC","REV_AT_EPOCH":"2311","BSTAR":"-0.00005309100000","RA_OF_ASC_NODE":"25.5413","MEAN_MOTION":"15.06395174","PERIAPSIS":"546.243","CENTER_NAME":"EARTH"},{"RA_OF_ASC_NODE":"45.5297","MEAN_MOTION":"15.06390572","PERIAPSIS":"545.929","CENTER_NAME":"EARTH","INCLINATION":"53.0567","OBJECT_NAME":"STARLINK-2468","COUNTRY_CODE":"US","TIME_SYSTEM":"UTC","OBJECT_ID":"2021-027AM","REV_AT_EPOCH":"2282","BSTAR":"0.00007250400000","TLE_LINE1":"1 48127U 21027AM  21238.72255323  .00000798  00000-0  72504-4 0  9995","MEAN_ELEMENT_THEORY":"SGP4","LAUNCH_DATE":"2021-04-07","SEMIMAJOR_AXIS":"6925.377","TLE_LINE2":"2 48127  53.0567  45.5297 0001896 104.7732 255.3467 15.06390572 22824","CLASSIFICATION_TYPE":"U","REF_FRAME":"TEME","RCS_SIZE":"LARGE","APOAPSIS":"548.556","EPHEMERIS_TYPE":"0","PERIOD":"95.593","ECCENTRICITY":"0.00018960","ARG_OF_PERICENTER":"104.7732","SITE":"AFETR","GP_ID":"183497418","MEAN_ANOMALY":"255.3467","FILE":"3103480","ELEMENT_SET_NO":"999","MEAN_MOTION_DDOT":"0.0000000000000","NORAD_CAT_ID":"48127","MEAN_MOTION_DOT":"0.00000798","EPOCH":"2021-08-26T17:20:28.599072","OBJECT_TYPE":"PAYLOAD","DECAY_DATE":null},{"COUNTRY_CODE":"US","INCLINATION":"53.0477","OBJECT_NAME":"STARLINK-2469","REV_AT_EPOCH":"2344","BSTAR":"0.00011937000000","TIME_SYSTEM":"UTC","OBJECT_ID":"2021-027AN","RA_OF_ASC_NODE":"0.0349","PERIAPSIS":"346.400","CENTER_NAME":"EARTH","MEAN_MOTION":"15.73232234","ELEMENT_SET_NO":"999","MEAN_MOTION_DDOT":"0.0000000000000","NORAD_CAT_ID":"48128","ECCENTRICITY":"0.00048580","ARG_OF_PERICENTER":"1.5814","GP_ID":"183497670","MEAN_ANOMALY":"358.5218","SITE":"AFETR","FILE":"3103480","OBJECT_TYPE":"PAYLOAD","DECAY_DATE":null,"MEAN_MOTION_DOT":"0.00016195","EPOCH":"2021-08-26T15:24:15.548832","LAUNCH_DATE":"2021-04-07","SEMIMAJOR_AXIS":"6727.803","TLE_LINE1":"1 48128U 21027AN  21238.64184663  .00016195  00000-0  11937-3 0  9995","MEAN_ELEMENT_THEORY":"SGP4","APOAPSIS":"352.937","EPHEMERIS_TYPE":"0","PERIOD":"91.531","CLASSIFICATION_TYPE":"U","TLE_LINE2":"2 48128  53.0477   0.0349 0004858   1.5814 358.5218 15.73232234 23448","REF_FRAME":"TEME","RCS_SIZE":"LARGE"},{"ARG_OF_PERICENTER":"114.7024","ECCENTRICITY":"0.00017830","FILE":"3103480","GP_ID":"183498420","SITE":"AFETR","MEAN_ANOMALY":"245.4150","MEAN_MOTION_DDOT":"0.0000000000000","ELEMENT_SET_NO":"999","NORAD_CAT_ID":"48129","MEAN_MOTION_DOT":"0.00000148","EPOCH":"2021-08-26T15:34:18.774624","OBJECT_TYPE":"PAYLOAD","DECAY_DATE":null,"TLE_LINE1":"1 48129U 21027AP  21238.64882841  .00000148  00000-0  28822-4 0  9992","MEAN_ELEMENT_THEORY":"SGP4","SEMIMAJOR_AXIS":"6925.367","LAUNCH_DATE":"2021-04-07","CLASSIFICATION_TYPE":"U","TLE_LINE2":"2 48129  53.0566  45.8597 0001783 114.7024 245.4150 15.06394122 22814","RCS_SIZE":"LARGE","REF_FRAME":"TEME","EPHEMERIS_TYPE":"0","APOAPSIS":"548.466","PERIOD":"95.593","INCLINATION":"53.0566","OBJECT_NAME":"STARLINK-2471","COUNTRY_CODE":"US","TIME_SYSTEM":"UTC","OBJECT_ID":"2021-027AP","BSTAR":"0.00002882200000","REV_AT_EPOCH":"2281","RA_OF_ASC_NODE":"45.8597","MEAN_MOTION":"15.06394122","CENTER_NAME":"EARTH","PERIAPSIS":"545.997"},{"REV_AT_EPOCH":"2276","BSTAR":"-0.00002047800000","TIME_SYSTEM":"UTC","OBJECT_ID":"2021-027AQ","COUNTRY_CODE":"US","INCLINATION":"53.0592","OBJECT_NAME":"STARLINK-2472","PERIAPSIS":"545.807","CENTER_NAME":"EARTH","MEAN_MOTION":"15.06398798","RA_OF_ASC_NODE":"50.3168","OBJECT_TYPE":"PAYLOAD","DECAY_DATE":null,"MEAN_MOTION_DOT":"-0.00000587","EPOCH":"2021-08-26T18:30:05.512896","MEAN_MOTION_DDOT":"0.0000000000000","ELEMENT_SET_NO":"999","NORAD_CAT_ID":"48130","ECCENTRICITY":"0.00020370","ARG_OF_PERICENTER":"95.1617","SITE":"AFETR","GP_ID":"183496669","MEAN_ANOMALY":"264.9605","FILE":"3103480","APOAPSIS":"548.628","EPHEMERIS_TYPE":"0","PERIOD":"95.592","TLE_LINE2":"2 48130  53.0592  50.3168 0002037  95.1617 264.9605 15.06398798 22761","CLASSIFICATION_TYPE":"U","REF_FRAME":"TEME","RCS_SIZE":"LARGE","LAUNCH_DATE":"2021-04-07","SEMIMAJOR_AXIS":"6925.352","TLE_LINE1":"1 48130U 21027AQ  21238.77089714 -.00000587  00000-0 -20478-4 0  9994","MEAN_ELEMENT_THEORY":"SGP4"},{"LAUNCH_DATE":"2021-04-07","SEMIMAJOR_AXIS":"6925.346","MEAN_ELEMENT_THEORY":"SGP4","TLE_LINE1":"1 48131U 21027AR  21238.72438148  .00000924  00000-0  80892-4 0  9998","APOAPSIS":"548.292","EPHEMERIS_TYPE":"0","PERIOD":"95.592","CLASSIFICATION_TYPE":"U","TLE_LINE2":"2 48131  53.0566  25.5423 0001560 119.7705 240.3439 15.06400775 23103","REF_FRAME":"TEME","RCS_SIZE":"LARGE","MEAN_MOTION_DDOT":"0.0000000000000","ELEMENT_SET_NO":"999","NORAD_CAT_ID":"48131","ECCENTRICITY":"0.00015600","ARG_OF_PERICENTER":"119.7705","MEAN_ANOMALY":"240.3439","GP_ID":"183496919","SITE":"AFETR","FILE":"3103480","OBJECT_TYPE":"PAYLOAD","DECAY_DATE":null,"MEAN_MOTION_DOT":"0.00000924","EPOCH":"2021-08-26T17:23:06.559872","RA_OF_ASC_NODE":"25.5423","PERIAPSIS":"546.131","CENTER_NAME":"EARTH","MEAN_MOTION":"15.06400775","COUNTRY_CODE":"US","INCLINATION":"53.0566","OBJECT_NAME":"STARLINK-2473","REV_AT_EPOCH":"2310","BSTAR":"0.00008089200000","TIME_SYSTEM":"UTC","OBJECT_ID":"2021-027AR"},{"PERIAPSIS":"545.965","CENTER_NAME":"EARTH","MEAN_MOTION":"15.06394889","RA_OF_ASC_NODE":"45.3168","REV_AT_EPOCH":"2282","BSTAR":"-0.00006254700000","TIME_SYSTEM":"UTC","OBJECT_ID":"2021-027AS","COUNTRY_CODE":"US","INCLINATION":"53.0570","OBJECT_NAME":"STARLINK-2474","APOAPSIS":"548.493","EPHEMERIS_TYPE":"0","PERIOD":"95.592","TLE_LINE2":"2 48132  53.0570  45.3168 0001825 103.9945 256.1247 15.06394889 22828","CLASSIFICATION_TYPE":"U","REF_FRAME":"TEME","RCS_SIZE":"LARGE","LAUNCH_DATE":"2021-04-07","SEMIMAJOR_AXIS":"6925.364","TLE_LINE1":"1 48132U 21027AS  21238.77046291 -.00001213  00000-0 -62547-4 0  9999","MEAN_ELEMENT_THEORY":"SGP4","OBJECT_TYPE":"PAYLOAD","DECAY_DATE":null,"MEAN_MOTION_DOT":"-0.00001213","EPOCH":"2021-08-26T18:29:27.995424","MEAN_MOTION_DDOT":"0.0000000000000","ELEMENT_SET_NO":"999","NORAD_CAT_ID":"48132","ECCENTRICITY":"0.00018250","ARG_OF_PERICENTER":"103.9945","GP_ID":"183498170","SITE":"AFETR","MEAN_ANOMALY":"256.1247","FILE":"3103480"}];
